{
  "type": "FeatureCollection",
  "features": [
    {
      "type": "Feature",
      "properties": {
        "norad_id": 40362,
        "name": "YAOGAN-26",
        "group": "resource",
        "lat": 56.654460611539264,
        "lon": -22.44209352159927,
        "alt_km": 438.98396441015484,
        "timestamp": "2025-12-13T18:50:04.085596+00:00",
        "meta_object_name": "YAOGAN-26",
        "meta_object_id": "2014-088A",
        "meta_epoch": "2025-12-13T07:39:56.692224",
        "meta_mean_motion": 15.39335122,
        "meta_eccentricity": 0.00061641,
        "meta_inclination": 97.0646,
        "meta_ra_of_asc_node": 347.9726,
        "meta_arg_of_pericenter": 28.8766,
        "meta_mean_anomaly": 331.282,
        "meta_ephemeris_type": 0,
        "meta_classification_type": "U",
        "meta_norad_cat_id": 40362,
        "meta_element_set_no": 999,
        "meta_rev_at_epoch": 60903,
        "meta_bstar": 0.00076471179,
        "meta_mean_motion_dot": 0.0002987,
        "meta_mean_motion_ddot": 0,
        "tle_line1": "1 40362U 14088A   25347.31940616  .00029870  00000+0  76471-3 0  9990",
        "tle_line2": "2 40362  97.0646 347.9726 0006164  28.8766 331.2820 15.39335122609032"
      },
      "geometry": {
        "type": "Point",
        "coordinates": [
          -22.44209352159927,
          56.654460611539264
        ]
      }
    },
    {
      "type": "Feature",
      "properties": {
        "norad_id": 40376,
        "name": "SMAP",
        "group": "resource",
        "lat": 20.47361739544387,
        "lon": -10.565600806913729,
        "alt_km": 682.0640187372037,
        "timestamp": "2025-12-13T18:50:04.085606+00:00",
        "meta_object_name": "SMAP",
        "meta_object_id": "2015-003A",
        "meta_epoch": "2025-12-13T07:15:10.175040",
        "meta_mean_motion": 14.63346436,
        "meta_eccentricity": 0.00012025,
        "meta_inclination": 98.1292,
        "meta_ra_of_asc_node": 352.0179,
        "meta_arg_of_pericenter": 90.4343,
        "meta_mean_anomaly": 269.6997,
        "meta_ephemeris_type": 0,
        "meta_classification_type": "U",
        "meta_norad_cat_id": 40376,
        "meta_element_set_no": 999,
        "meta_rev_at_epoch": 58043,
        "meta_bstar": 0.0001893382,
        "meta_mean_motion_dot": 9.31e-06,
        "meta_mean_motion_ddot": 0,
        "tle_line1": "1 40376U 15003A   25347.30220110  .00000931  00000+0  18934-3 0  9999",
        "tle_line2": "2 40376  98.1292 352.0179 0001202  90.4343 269.6997 14.63346436580436"
      },
      "geometry": {
        "type": "Point",
        "coordinates": [
          -10.565600806913729,
          20.47361739544387
        ]
      }
    },
    {
      "type": "Feature",
      "properties": {
        "norad_id": 40536,
        "name": "KOMPSAT-3A",
        "group": "resource",
        "lat": 15.038642740544223,
        "lon": -39.8885769694152,
        "alt_km": 436.36108931865783,
        "timestamp": "2025-12-13T18:50:04.085617+00:00",
        "meta_object_name": "KOMPSAT-3A",
        "meta_object_id": "2015-014A",
        "meta_epoch": "2025-12-13T06:19:31.824192",
        "meta_mean_motion": 15.43974186,
        "meta_eccentricity": 0.00049731,
        "meta_inclination": 97.6788,
        "meta_ra_of_asc_node": 321.6388,
        "meta_arg_of_pericenter": 126.0764,
        "meta_mean_anomaly": 234.0944,
        "meta_ephemeris_type": 0,
        "meta_classification_type": "U",
        "meta_norad_cat_id": 40536,
        "meta_element_set_no": 999,
        "meta_rev_at_epoch": 59303,
        "meta_bstar": 0.00063966279,
        "meta_mean_motion_dot": 0.00029119,
        "meta_mean_motion_ddot": 0,
        "tle_line1": "1 40536U 15014A   25347.26356278  .00029119  00000+0  63966-3 0  9993",
        "tle_line2": "2 40536  97.6788 321.6388 0004973 126.0764 234.0944 15.43974186593039"
      },
      "geometry": {
        "type": "Point",
        "coordinates": [
          -39.8885769694152,
          15.038642740544223
        ]
      }
    },
    {
      "type": "Feature",
      "properties": {
        "norad_id": 40697,
        "name": "SENTINEL-2A",
        "group": "resource",
        "lat": 52.11419194352354,
        "lon": -108.5250340214804,
        "alt_km": 783.5320927452212,
        "timestamp": "2025-12-13T18:50:04.085627+00:00",
        "meta_object_name": "SENTINEL-2A",
        "meta_object_id": "2015-028A",
        "meta_epoch": "2025-12-13T06:29:41.447904",
        "meta_mean_motion": 14.30813641,
        "meta_eccentricity": 0.00010836,
        "meta_inclination": 98.5687,
        "meta_ra_of_asc_node": 59.795,
        "meta_arg_of_pericenter": 88.8615,
        "meta_mean_anomaly": 271.2692,
        "meta_ephemeris_type": 0,
        "meta_classification_type": "U",
        "meta_norad_cat_id": 40697,
        "meta_element_set_no": 999,
        "meta_rev_at_epoch": 54714,
        "meta_bstar": 0.00012308935,
        "meta_mean_motion_dot": 2.79e-06,
        "meta_mean_motion_ddot": 0,
        "tle_line1": "1 40697U 15028A   25347.27061861  .00000279  00000+0  12309-3 0  9999",
        "tle_line2": "2 40697  98.5687  59.7950 0001083  88.8615 271.2692 14.30813641547145"
      },
      "geometry": {
        "type": "Point",
        "coordinates": [
          -108.5250340214804,
          52.11419194352354
        ]
      }
    },
    {
      "type": "Feature",
      "properties": {
        "norad_id": 40701,
        "name": "GAOFEN-8",
        "group": "resource",
        "lat": -38.28269398507266,
        "lon": -20.147583205908763,
        "alt_km": 455.9645349470111,
        "timestamp": "2025-12-13T18:50:04.085638+00:00",
        "meta_object_name": "GAOFEN-8",
        "meta_object_id": "2015-030A",
        "meta_epoch": "2025-12-13T06:57:43.406208",
        "meta_mean_motion": 15.38571365,
        "meta_eccentricity": 0.00117502,
        "meta_inclination": 97.6913,
        "meta_ra_of_asc_node": 165.4569,
        "meta_arg_of_pericenter": 135.9889,
        "meta_mean_anomaly": 224.2293,
        "meta_ephemeris_type": 0,
        "meta_classification_type": "U",
        "meta_norad_cat_id": 40701,
        "meta_element_set_no": 999,
        "meta_rev_at_epoch": 58279,
        "meta_bstar": 0.00068645095,
        "meta_mean_motion_dot": 0.00026169,
        "meta_mean_motion_ddot": 0,
        "tle_line1": "1 40701U 15030A   25347.29008572  .00026169  00000+0  68645-3 0  9990",
        "tle_line2": "2 40701  97.6913 165.4569 0011750 135.9889 224.2293 15.38571365582791"
      },
      "geometry": {
        "type": "Point",
        "coordinates": [
          -20.147583205908763,
          -38.28269398507266
        ]
      }
    },
    {
      "type": "Feature",
      "properties": {
        "norad_id": 40718,
        "name": "CARBONITE 1 (CBNT-1)",
        "group": "resource",
        "lat": -58.90310277937958,
        "lon": -178.35835791435235,
        "alt_km": 633.2248151835092,
        "timestamp": "2025-12-13T18:50:04.085648+00:00",
        "meta_object_name": "CARBONITE 1 (CBNT-1)",
        "meta_object_id": "2015-032D",
        "meta_epoch": "2025-12-13T07:46:01.143840",
        "meta_mean_motion": 14.8274969,
        "meta_eccentricity": 0.00145154,
        "meta_inclination": 97.6405,
        "meta_ra_of_asc_node": 168.3417,
        "meta_arg_of_pericenter": 179.3655,
        "meta_mean_anomaly": 180.758,
        "meta_ephemeris_type": 0,
        "meta_classification_type": "U",
        "meta_norad_cat_id": 40718,
        "meta_element_set_no": 999,
        "meta_rev_at_epoch": 56179,
        "meta_bstar": 0.00052840777,
        "meta_mean_motion_dot": 4.227e-05,
        "meta_mean_motion_ddot": 0,
        "tle_line1": "1 40718U 15032D   25347.32362435  .00004227  00000+0  52841-3 0  9997",
        "tle_line2": "2 40718  97.6405 168.3417 0014515 179.3655 180.7580 14.82749690561792"
      },
      "geometry": {
        "type": "Point",
        "coordinates": [
          -178.35835791435235,
          -58.90310277937958
        ]
      }
    },
    {
      "type": "Feature",
      "properties": {
        "norad_id": 40878,
        "name": "YAOGAN-27",
        "group": "resource",
        "lat": 79.61930328559308,
        "lon": -125.95968264987711,
        "alt_km": 1198.0255387463176,
        "timestamp": "2025-12-13T18:50:04.085659+00:00",
        "meta_object_name": "YAOGAN-27",
        "meta_object_id": "2015-040A",
        "meta_epoch": "2025-12-13T07:25:10.063200",
        "meta_mean_motion": 13.16060664,
        "meta_eccentricity": 0.00076382,
        "meta_inclination": 100.1017,
        "meta_ra_of_asc_node": 336.9033,
        "meta_arg_of_pericenter": 285.4931,
        "meta_mean_anomaly": 74.5339,
        "meta_ephemeris_type": 0,
        "meta_classification_type": "U",
        "meta_norad_cat_id": 40878,
        "meta_element_set_no": 999,
        "meta_rev_at_epoch": 49321,
        "meta_bstar": -0.0001856682,
        "meta_mean_motion_dot": -1.13e-06,
        "meta_mean_motion_ddot": 0,
        "tle_line1": "1 40878U 15040A   25347.30914425 -.00000113  00000+0 -18567-3 0  9992",
        "tle_line2": "2 40878 100.1017 336.9033 0007638 285.4931  74.5339 13.16060664493215"
      },
      "geometry": {
        "type": "Point",
        "coordinates": [
          -125.95968264987711,
          79.61930328559308
        ]
      }
    }
  ]
}